PROMETHEUS 2-3          
1 41855U 16067H   23347.42731782  .00006845  00000+0  42370-3 0  9997
2 41855  98.0765 145.8338 0012554 345.4319  14.6545 15.10095790387491
DIDO-2                  
1 42000U 17008BE  23347.12515806  .00034685  00000+0  60739-3 0  9992
2 42000  97.1765  41.2893 0006020  99.5520 260.6413 15.50508193379556
AALTO-1                 
1 42775U 17036L   23347.57508380  .00022567  00000+0  47761-3 0  9996
2 42775  97.1316  13.3102 0008124 159.3619 200.7960 15.45096875360129
URSA MAIOR              
1 42776U 17036M   23347.57515359  .00030660  00000+0  56176-3 0  9994
2 42776  97.1317  15.3958 0007785 151.9681 208.1991 15.49229301360246
DIAMOND RED             
1 42783U 17036U   23347.61426631  .00045533  00000+0  64943-3 0  9997
2 42783  97.1247  19.8467 0005347 147.7203 212.4380 15.56153578360537
PEGASUS                 
1 42784U 17036V   23347.59658686  .00277251  00000+0  11659-2 0  9991
2 42784  97.1127  25.8207 0003660 125.3963 234.7650 15.84790857360945
DIAMOND GREEN           
1 42785U 17036W   23347.58426629  .00060744  00000+0  75698-3 0  9992
2 42785  97.1221  20.4991 0005472 142.8875 217.2761 15.59705981360643
DIAMOND BLUE            
1 42786U 17036X   23347.60174700  .00051536  00000+0  69465-3 0  9990
2 42786  97.1256  20.2103 0005859 141.8006 218.3667 15.57650781360629
CICERO 6                
1 42793U 17036AE  23347.58369581  .00037084  00000+0  62627-3 0  9993
2 42793  97.1232  19.1738 0005769 143.7502 216.4143 15.51520713360582
CORVUS BC2              
1 42846U 17042X   23347.53812135  .00002170  00000+0  19840-3 0  9999
2 42846  97.3717 178.2666 0008172 337.4434  22.6428 14.95941386349529
CORVUS BC1              
1 42847U 17042Y   23347.51706817  .00001439  00000+0  13280-3 0  9996
2 42847  97.3718 178.6219 0008024 337.1133  22.9731 14.96065226349530
MIRATA                  
1 43015U 17073C   23347.60176118  .00010955  00000+0  61631-3 0  9999
2 43015  97.6089 230.5869 0192515 173.5342 186.8435 14.98967701328308
MAKERSAT 0              
1 43016U 17073D   23347.58562110  .00006464  00000+0  40724-3 0  9998
2 43016  97.6063 227.2439 0212102 187.4709 172.3337 14.92697410328035
CORVUS BC3              
1 43118U 18004H   23347.19234284  .00033334  00000+0  57498-3 0  9993
2 43118  97.3098  62.5195 0004936 198.9818 161.1251 15.50951610329654
GOMX-4B                 
1 43196U 18015E   23347.39893456  .00019553  00000+0  41280-3 0  9994
2 43196  97.5934 144.9018 0010787 282.1073  77.8966 15.45182336326535
GOMX-4A                 
1 43197U 18015F   23347.53099693  .00027143  00000+0  48580-3 0  9996
2 43197  97.5904 148.2215 0009668 272.9461  87.0683 15.49909430326774
CUBEBEL-1 (BSUSAT-1)    
1 43666U 18083E   23347.50669802  .00083229  00000+0  10334-2 0  9996
2 43666  97.3543  22.1651 0005591 164.3127 195.8304 15.59717127284918
CICERO 10               
1 43690U 18088A   23347.40504170  .00027243  00000+0  53800-3 0  9993
2 43690  85.0256 310.4804 0003860 288.7915  71.2922 15.47002355283094
PROXIMA I               
1 43694U 18088E   23347.34596012  .00037828  00000+0  59978-3 0  9998
2 43694  85.0173 305.2339 0005531 204.8470 155.2523 15.53206079283448
PROXIMA II              
1 43696U 18088G   23347.38164574  .00038377  00000+0  61514-3 0  9997
2 43696  85.0180 305.3033 0005618 206.4769 153.6204 15.52902091283438
SIRION PATHFINDER-2     
1 43759U 18099B   23347.49717663  .00002876  00000+0  23340-3 0  9994
2 43759  97.5461  43.9982 0012190 205.8400 154.2216 15.00361307274492
CORVUS BC4              
1 43767U 18099K   23347.12252238  .00003072  00000+0  25222-3 0  9995
2 43767  97.5486  41.3334 0007785 245.3673 114.6740 14.99899785274334
MOVE-II                 
1 43780U 18099Y   23347.18075650  .00010522  00000+0  67658-3 0  9994
2 43780  97.5501  47.7524 0006670 261.3227  98.7246 15.08569445274671
SPACEBEE-7              
1 43816U 18099BL  23347.16603201  .00007575  00000+0  52057-3 0  9992
2 43816  97.5775  48.6985 0010426 202.4409 157.6363 15.06183083274210
SPACEBEE-5              
1 43817U 18099BM  23347.15887472  .00105546  00000+0  24208-2 0  9999
2 43817  97.5694  61.9540 0002741 203.5161 156.5961 15.42331003275001
SPACEBEE-6              
1 43818U 18099BN  23347.16931216  .00014066  00000+0  81452-3 0  9998
2 43818  97.5694  51.8121 0009907 215.0349 145.0230 15.12292332274551
SHIELDS 1               
1 43850U 18104B   23347.59270244  .00007362  00000+0  23413-3 0  9999
2 43850  85.0263  49.1757 0013772  57.5138 302.7438 15.32312652277540
STF-1                   
1 43852U 18104D   23347.59702713  .00091521  00000+0  85388-3 0  9991
2 43852  85.0133  42.7618 0005188  50.2490 309.9232 15.67005742278220
ZACUBE-2                
1 43907U 18111AH  23347.62805901  .00050723  00000+0  71187-3 0  9998
2 43907  97.1026 224.3173 0008220 284.8268  75.2077 15.56545712276893
LUME 1                  
1 43908U 18111AJ  23347.20553729  .00092964  00000+0  71734-3 0  9992
2 43908  97.1036 229.8961 0003082 257.1061 102.9859 15.71657390277222
SONATE                  
1 44400U 19038Q   23347.47039611  .00009208  00000+0  35606-3 0  9994
2 44400  97.7015 329.6105 0020739  48.9948 311.3079 15.26259070245532
LUCKY-7                 
1 44406U 19038W   23347.51195943  .00016266  00000+0  53928-3 0  9995
2 44406  97.6960 331.8652 0018588  41.4216 318.8429 15.31186918245697
BEESAT 9                
1 44412U 19038AC  23347.52630487  .00038854  00000+0  85605-3 0  9994
2 44412  97.6851 335.8003 0014033  36.4252 323.7947 15.43733193245687
JAISAT-1                
1 44419U 19038F   23347.45234392  .00032820  00000+0  72431-3 0  9998
2 44419  97.6832 336.8430 0013408  34.0004 326.2100 15.43728686246054
DUCHIFAT-3              
1 44854U 19089C   23347.57183773  .00008457  00000+0  51056-3 0  9995
2 44854  36.9602  96.2104 0007446 359.1731   0.9001 15.10264493219990
M2 PATHFINDER           
1 45727U 20037E   23347.47463063  .00001602  00000+0  14984-3 0  9996
2 45727  97.7635 160.2583 0012411  32.0465 328.1508 14.95473674188024
NETSAT-4                
1 46504U 20068U   23347.41627297  .00005886  00000+0  35878-3 0  9992
2 46504  97.7848 295.4797 0008709 285.1748  74.8518 15.10730899175937
NETSAT-3                
1 46505U 20068V   23347.41235484  .00005870  00000+0  36119-3 0  9998
2 46505  97.7824 295.1793 0008082 296.1463  63.8934 15.10394750175937
NETSAT-1                
1 46506U 20068W   23347.44830641  .00003731  00000+0  23617-3 0  9991
2 46506  97.7844 294.9874 0006750 310.3913  49.6726 15.09610554175927
NETSAT-2                
1 46507U 20068X   23347.55537770  .00006180  00000+0  37750-3 0  9995
2 46507  97.7833 295.3147 0006362 317.8056  42.2682 15.10649255175903
WILDTRACKCUBE-SIMBA     
1 47941U 21022K   23347.62007272  .00006697  00000+0  35111-3 0  9998
2 47941  97.4793 241.6354 0019541  75.9379 284.4024 15.15930981150159
BEESAT-6                
1 47957U 21022AB  23345.68500436  .00024767  00000+0  83756-3 0  9995
2 47957  97.4739 244.1153 0016046  67.9273 292.3670 15.30494610149965
SMOG-1                  
1 47964U 21022AJ  23347.30118985  .00024018  00000+0  77239-3 0  9996
2 47964  97.4825 248.3994 0014235  50.8865 309.3639 15.32149494149383
BCCSAT-1                
1 48041U 21022AK  23347.61724629  .00022253  00000+0  81597-3 0  9996
2 48041  97.4815 246.8070 0012680  52.5138 307.7252 15.27920068149281
BEESAT-5                
1 48083U 21022AM  23347.25505505  .00028524  00000+0  88652-3 0  9998
2 48083  97.4599 246.1782 0015317  60.1781 300.0982 15.33188440149393
BEESAT-7                
1 48084U 21022AN  23345.21266672  .00021881  00000+0  72738-3 0  9999
2 48084  97.4755 243.9342 0015287  66.0986 294.1854 15.31085372148638
BEESAT-8                
1 48085U 21022AP  23346.69147899  .00011390  00000+0  50610-3 0  9991
2 48085  97.4853 243.4562 0017813  70.9845 289.3319 15.21550461149270
LEDSAT                  
1 49069U 21073D   23347.18837269  .00007342  00000+0  35859-3 0  9992
2 49069  97.4640  55.3150 0021120 216.3380 143.6421 15.18358794128023
